1 24753U 97012A   98234.97130644  .00000094  00000-0  73891-4 0  5687
2 24753  98.8769 281.8941 0007948 270.1937  89.8326 14.13094186 71360
1 24753U 97012A   98235.11291841 +.00000108 +00000-0 +81746-4 0 05775
2 24753 098.8769 282.0346 0007970 269.9482 090.0779 14.13094376071387
1 24753U 97012A   98235.89178530  .00000122  00000-0  89082-4 0  5697
2 24753  98.8769 282.8066 0007874 267.0789  92.9482 14.13094767 71494
1 24753U 97012A   98236.10420317 +.00000147 +00000-0 +10235-3 0 05785
2 24753 098.8769 283.0174 0007922 266.8664 093.1606 14.13095092071527
1 24753U 97012A   98237.09548799  .00000157  00000-0  10793-3 0  5701
2 24753  98.8770 284.0005 0007899 263.6913  96.3364 14.13095575 71665
1 24753U 97012A   98237.16629389 +.00000162 +00000-0 +11020-3 0 05726
2 24753 098.8770 284.0708 0007905 263.5957 096.4315 14.13095646071677
1 24753U 97012A   98237.87435460  .00000152  00000-0  10496-3 0  5713
2 24753  98.8770 284.7729 0007846 261.0007  99.0274 14.13095831 71770
1 24753U 97012A   98238.15757865 +.00000161 +00000-0 +11012-3 0 05817
2 24753 098.8770 285.0539 0007866 260.3155 099.7129 14.13096040071815
1 24753U 97012A   98239.00725169  .00000140  00000-0  98696-4 0  5758
2 24753  98.8770 285.8964 0007840 257.6269 102.4027 14.13096151 71937
1 24753U 97012A   98239.07805763  .00000144  00000-0  10061-3 0  5768
2 24753  98.8770 285.9667 0007856 257.3689 102.6607 14.13096214 71945
1 24753U 97012A   98239.14886362 +.00000144 +00000-0 +10092-3 0 05786
2 24753 098.8770 286.0370 0007855 257.1935 102.8359 14.13096245071950
1 24753U 97012A   98240.06934254  .00000125  00000-0  90666-4 0  5777
2 24753  98.8770 286.9498 0007839 254.1809 105.8500 14.13096367 72080
1 24753U 97012A   98240.14014857 +.00000126 +00000-0 +91209-4 0 05780
2 24753 098.8770 287.0200 0007838 254.0131 106.0179 14.13096401072094
1 24753U 97012A   98240.84820921  .00000105  00000-0  80070-4 0  5785
2 24753  98.8769 287.7219 0007827 251.5596 108.4718 14.13096418 72198
1 24753U 97012A   98241.13143300 +.00000126 +00000-0 +91230-4 0 05870
2 24753 098.8769 288.0028 0007847 251.0475 108.9848 14.13096727072230
1 24753U 97012A   98241.83949301  .00000131  00000-0  93701-4 0  5794
2 24753  98.8768 288.7047 0007815 248.4238 111.6100 14.13097019 72337
1 24753U 97012A   98242.12271670 +.00000150 +00000-0 +10414-3 0 05884
2 24753 098.8768 288.9856 0007843 248.0061 112.0282 14.13097328072371
1 24753U 97012A   98242.83077621  .00000158  00000-0  10807-3 0  5808
2 24753  98.8767 289.6876 0007826 245.4196 114.6157 14.13097687 72479
1 24753U 97012A   98243.11399975 +.00000177 +00000-0 +11864-3 0 05916
2 24753 098.8767 289.9686 0007847 244.9259 115.1101 14.13098004072512
1 24753U 97012A   98243.89286496  .00000190  00000-0  12551-3 0  5812
2 24753  98.8767 290.7408 0007804 242.1887 117.8493 14.13098494 72622
1 24753U 97012A   98244.10528234 +.00000210 +00000-0 +13608-3 0 05947
2 24753 098.8767 290.9516 0007820 241.8693 118.1689 14.13098795072651
1 24753U 97012A   98245.09656492 +.00000220 +00000-0 +14157-3 0 05877
2 24753 098.8767 291.9345 0007846 238.7530 121.2876 14.13099402072799
1 24753U 97012A   98246.86671202  .00000202  00000-0  13167-3 0  5857
2 24753  98.8768 293.6899 0007866 232.4544 127.5905 14.13100125 73047
1 24753U 97012A   98248.14121815 +.00000177 +00000-0 +11842-3 0 05950
2 24753 098.8767 294.9537 0007902 228.1395 131.9103 14.13100469073226
1 24753U 97012A   98248.84927731  .00000136  00000-0  96632-4 0  5875
2 24753  98.8766 295.6553 0007935 225.0527 134.9990 14.13100351 73328
1 24753U 97012A   98249.27411249 +.00000146 +00000-0 +10161-3 0 05935
2 24753 098.8766 296.0766 0007927 224.0270 136.0269 14.13100596073383
1 24753U 97012A   98250.12378241 +.00000181 +00000-0 +12062-3 0 05970
2 24753 098.8765 296.9189 0007836 222.4170 137.6406 14.13101288073503
1 24753U 97012A   98251.11506340 +.00000228 +00000-0 +14590-3 0 05962
2 24753 098.8763 297.9018 0007737 220.0534 140.0093 14.13102198073647
1 24753U 97012A   98252.10634413 +.00000204 +00000-0 +13267-3 0 06016
2 24753 098.8764 298.8848 0007803 216.8170 143.2469 14.13102450073780
1 24753U 97012A   98253.09762490 +.00000198 +00000-0 +12946-3 0 05982
2 24753 098.8764 299.8678 0007821 213.8176 146.2501 14.13102858073923
1 24753U 97012A   98254.15971136 +.00000177 +00000-0 +11823-3 0 06036
2 24753 098.8763 300.9207 0007885 209.9422 150.1300 14.13103133074079
1 24753U 97012A   98254.86776909  .00000145  00000-0  10154-3 0  5945
2 24753  98.8764 301.6228 0007941 207.5943 152.4798 14.13103112 74170
1 24753U 97012A   98255.15099211 +.00000154 +00000-0 +10596-3 0 05997
2 24753 098.8764 301.9038 0007931 206.7882 153.2883 14.13103294074214
1 24753U 97012A   98255.85904996  .00000121  00000-0  88677-4 0  5955
2 24753  98.8760 302.6047 0007986 204.4432 155.6357 14.13103271 74312
1 24753U 97012A   98256.14227293 +.00000124 +00000-0 +90011-4 0 06034
2 24753 098.8760 302.8856 0007994 203.6290 156.4516 14.13103386074351
1 24753U          98256.49631761  .00000087  00000-0  70217-4 0   759
2 24753  98.8725 303.2310 0008488 198.7761 161.3444 14.13101927 74408
1 24753U 97012A   98256.99194225  .00000094  00000-0  73948-4 0  5962
2 24753  98.8758 303.7273 0008061 200.6321 159.4528 14.13103375 74476
1 24753U 97012A   98257.13355360 +.00000100 +00000-0 +77238-4 0 06020
2 24753 098.8758 303.8677 0008053 200.3433 159.7420 14.13103473074492
1 24753U 97012A   98257.84161084  .00000088  00000-0  70681-4 0  5979
2 24753  98.8759 304.5697 0008127 197.6071 162.4813 14.13103544 74598
1 24753U 97012A   98258.12483362 +.00000104 +00000-0 +79251-4 0 06081
2 24753 098.8758 304.8505 0008109 196.9897 163.1006 14.13103778074632
1 24753U 97012A   98258.83289067  .00000099  00000-0  76623-4 0  5986
2 24753  98.8758 305.5526 0008121 194.9244 165.1685 14.13103932 74739
1 24753U 97012A   98259.11611326 +.00000118 +00000-0 +86701-4 0 06065
2 24753 098.8758 305.8333 0008115 194.1919 165.9029 14.13104203074778
1 24753U 97012A   98259.82416962  .00000134  00000-0  95363-4 0  5995
2 24753  98.8756 306.5350 0008181 191.2316 168.8670 14.13104606 74877
1 24753U 97012A   98260.10739214 +.00000156 +00000-0 +10718-3 0 06070
2 24753 098.8756 306.8160 0008176 190.6015 169.4997 14.13104921074916
1 24753U 97012A   98260.88625382  .00000164  00000-0  11138-3 0  6004
2 24753  98.8755 307.5877 0008274 187.5553 172.5493 14.13105322 75024
1 24753U 97012A   98261.09867054 +.00000180 +00000-0 +12010-3 0 06055
2 24753 098.8754 307.7984 0008270 187.2021 172.9041 14.13105573075051
1 24753U 97012A   98262.08994904  .00000185  00000-0  12249-3 0  6026
2 24753  98.8753 308.7809 0008306 184.1746 175.9362 14.13106063 75196
1 24753U 97012A   98262.16075455 +.00000186 +00000-0 +12316-3 0 06033
2 24753 098.8753 308.8511 0008301 183.9782 176.1327 14.13106107075204
1 24753U 97012A   98263.08122781  .00000161  00000-0  11003-3 0  6035
2 24753  98.8752 309.7632 0008359 181.1921 178.9235 14.13106277 75335
1 24753U 97012A   98263.15203336 +.00000163 +00000-0 +11068-3 0 06043
2 24753 098.8752 309.8334 0008355 180.9975 179.1183 14.13106317075348
1 24753U 97012A   98263.86009009  .00000116  00000-0  85551-4 0  6049
2 24753  98.8751 310.5347 0008392 178.7407 181.3780 14.13106148 75447
1 24753U 97012A   98264.14331251 +.00000120 +00000-0 +88032-4 0 06118
2 24753 098.8751 310.8156 0008404 178.0254 182.0953 14.13106281075487
1 24753U 97012A   98265.13459116 +.00000103 +00000-0 +79004-4 0 06074
2 24753 098.8751 311.7980 0008394 175.2802 184.8451 14.13106427075629
1 24753U 97012A   98265.84264726  .00000082  00000-0  67420-4 0  6067
2 24753  98.8750 312.4996 0008495 172.9290 187.1996 14.13106409 75721
1 24753U 97012A   98266.12586950 +.00000096 +00000-0 +75138-4 0 06166
2 24753 098.8750 312.7806 0008460 172.2435 187.8870 14.13106618075764
1 24753U 97012A   98266.76311963  .00000104  00000-0  79052-4 0  6075
2 24753  98.8749 313.4121 0008492 170.3162 189.8181 14.13106870 75858
1 24753U 97012A   98267.11714683 +.00000134 +00000-0 +95532-4 0 06132
2 24753 098.8749 313.7632 0008419 169.5094 190.6259 14.13107280075909
1 24753U 97012A   98267.75440477  .00000122  00000-0  65326-4 0  6088
2 24753  98.8691 314.3900 0009225 172.3499 187.8459 14.13106585 75993
1 24753U 97012A   98267.89600781  .00000126  00000-0  91350-4 0  6090
2 24753  98.8748 314.5351 0008478 167.2653 192.8736 14.13107480 76015
1 24753U 97012A   98267.96681331  .00000133  00000-0  95058-4 0  6107
2 24753  98.8748 314.6052 0008461 167.0493 193.0904 14.13107575 76022
1 24753U 97012A   98268.10842408 +.00000163 +00000-0 +11068-3 0 06165
2 24753 098.8748 314.7459 0008433 166.8123 193.3294 14.13107906076045
1 24753U 97012A   98269.02889527  .00000172  00000-0  11548-3 0  6141
2 24753  98.8747 315.6582 0008436 164.1123 196.0328 14.13108370 76173
1 24753U 97012A   98269.09970018 +.00000214 +00000-0 +13835-3 0 06197
2 24753 098.8747 315.7288 0008473 164.0189 196.1275 14.13108685076181
1 24753U 97012A   98269.87855929  .00000214  00000-0  13811-3 0  6167
2 24753  98.8743 316.4999 0008858 161.2166 198.9334 14.13109176 76299
1 24753U 97012A   98270.16178077 +.00000259 +00000-0 +16203-3 0 06193
2 24753 098.8744 316.7810 0008786 160.4040 199.7472 14.13109544076333
1 24753U 97012A   98270.86983515  .00000175  00000-0  11714-3 0  6178
2 24753  98.8740 317.4817 0009012 158.4325 201.7224 14.13109653 76431
1 24753U 97012A   98271.15305654 +.00000260 +00000-0 +16292-3 0 06231
2 24753 098.8740 317.7627 0008943 157.6129 202.5435 14.13110147076475
1 24753U 97012A   98271.86111099  .00000074  00000-0  63101-4 0  6186
2 24753  98.8738 318.4637 0009080 155.8588 204.3003 14.13109811 76571
1 24753U 97012A   98272.14433257 +.00000140 +00000-0 +98328-4 0 06274
2 24753 098.8737 318.7444 0009073 155.0310 205.1302 14.13110150076610
1 24753U 97012A   98272.85238695 -.00000031  00000-0  70845-5 0  6197
2 24753  98.8737 319.4460 0009158 153.1219 207.0412 14.13109551 76714
1 24753U 97012A   98273.13560846 +.00000079 +00000-0 +65960-4 0 06265
2 24753 098.8736 319.7266 0009146 152.3602 207.8059 14.13110147076756
